[{
  "_id": {
    "$oid": "66adb133a9805af7a920dec2"
  },
  "userId": {
    "$oid": "66adb133a9805af7a920dec0"
  },
  "brand": "Alisha",
  "location": {
    "street": "ABC",
    "district": "Ghaziabad",
    "state": "Uttar Pradesh",
    "pincode": "201005"
  },
  "__v": 0
},
{
  "_id": {
    "$oid": "66adb135a9805af7a920dee6"
  },
  "userId": {
    "$oid": "66adb135a9805af7a920dee4"
  },
  "brand": "Ladela",
  "location": {
    "street": "ABC",
    "district": "Ghaziabad",
    "state": "Uttar Pradesh",
    "pincode": "201005"
  },
  "__v": 0
},
{
  "_id": {
    "$oid": "66adb136a9805af7a920def8"
  },
  "userId": {
    "$oid": "66adb136a9805af7a920def6"
  },
  "brand": "Freelance",
  "location": {
    "street": "ABC",
    "district": "Ghaziabad",
    "state": "Uttar Pradesh",
    "pincode": "201005"
  },
  "__v": 0
},
{
  "_id": {
    "$oid": "66adb137a9805af7a920df13"
  },
  "userId": {
    "$oid": "66adb137a9805af7a920df11"
  },
  "brand": "Style Foot",
  "location": {
    "street": "ABC",
    "district": "Ghaziabad",
    "state": "Uttar Pradesh",
    "pincode": "201005"
  },
  "__v": 0
},
{
  "_id": {
    "$oid": "66adb138a9805af7a920df22"
  },
  "userId": {
    "$oid": "66adb138a9805af7a920df20"
  },
  "brand": "Pick Pocket",
  "location": {
    "street": "ABC",
    "district": "Ghaziabad",
    "state": "Uttar Pradesh",
    "pincode": "201005"
  },
  "__v": 0
},
{
  "_id": {
    "$oid": "66adb138a9805af7a920df32"
  },
  "userId": {
    "$oid": "66adb138a9805af7a920df30"
  },
  "brand": "Nuride",
  "location": {
    "street": "ABC",
    "district": "Ghaziabad",
    "state": "Uttar Pradesh",
    "pincode": "201005"
  },
  "__v": 0
},
{
  "_id": {
    "$oid": "66adb13fa9805af7a920df42"
  },
  "userId": {
    "$oid": "66adb13fa9805af7a920df40"
  },
  "brand": "Babeezworld",
  "location": {
    "street": "ABC",
    "district": "Ghaziabad",
    "state": "Uttar Pradesh",
    "pincode": "201005"
  },
  "__v": 0
},
{
  "_id": {
    "$oid": "66adb140a9805af7a920df54"
  },
  "userId": {
    "$oid": "66adb140a9805af7a920df52"
  },
  "brand": "Slim",
  "location": {
    "street": "ABC",
    "district": "Ghaziabad",
    "state": "Uttar Pradesh",
    "pincode": "201005"
  },
  "__v": 0
},
{
  "_id": {
    "$oid": "66adb143a9805af7a920df78"
  },
  "userId": {
    "$oid": "66adb143a9805af7a920df76"
  },
  "brand": "Skanders",
  "location": {
    "street": "ABC",
    "district": "Ghaziabad",
    "state": "Uttar Pradesh",
    "pincode": "201005"
  },
  "__v": 0
},
{
  "_id": {
    "$oid": "66adb144a9805af7a920df87"
  },
  "userId": {
    "$oid": "66adb144a9805af7a920df85"
  },
  "brand": "Regular",
  "location": {
    "street": "ABC",
    "district": "Ghaziabad",
    "state": "Uttar Pradesh",
    "pincode": "201005"
  },
  "__v": 0
},
{
  "_id": {
    "$oid": "66adb146a9805af7a920df96"
  },
  "userId": {
    "$oid": "66adb146a9805af7a920df94"
  },
  "brand": "Skinny Fit",
  "location": {
    "street": "ABC",
    "district": "Ghaziabad",
    "state": "Uttar Pradesh",
    "pincode": "201005"
  },
  "__v": 0
},
{
  "_id": {
    "$oid": "66adb14ba9805af7a920dfa5"
  },
  "userId": {
    "$oid": "66adb14aa9805af7a920dfa3"
  },
  "brand": "Kleio",
  "location": {
    "street": "ABC",
    "district": "Ghaziabad",
    "state": "Uttar Pradesh",
    "pincode": "201005"
  },
  "__v": 0
},
{
  "_id": {
    "$oid": "66adb14ba9805af7a920dfb7"
  },
  "userId": {
    "$oid": "66adb14ba9805af7a920dfb5"
  },
  "brand": "Mizuno",
  "location": {
    "street": "ABC",
    "district": "Ghaziabad",
    "state": "Uttar Pradesh",
    "pincode": "201005"
  },
  "__v": 0
},
{
  "_id": {
    "$oid": "66adb14fa9805af7a920dfeb"
  },
  "userId": {
    "$oid": "66adb14fa9805af7a920dfe9"
  },
  "brand": "Living World by Home Stop",
  "location": {
    "street": "ABC",
    "district": "Ghaziabad",
    "state": "Uttar Pradesh",
    "pincode": "201005"
  },
  "__v": 0
},
{
  "_id": {
    "$oid": "66adb150a9805af7a920dffd"
  },
  "userId": {
    "$oid": "66adb150a9805af7a920dffb"
  },
  "brand": "Regular Fit",
  "location": {
    "street": "ABC",
    "district": "Ghaziabad",
    "state": "Uttar Pradesh",
    "pincode": "201005"
  },
  "__v": 0
},
{
  "_id": {
    "$oid": "66adb156a9805af7a920e039"
  },
  "userId": {
    "$oid": "66adb155a9805af7a920e037"
  },
  "brand": "Raymond",
  "location": {
    "street": "ABC",
    "district": "Ghaziabad",
    "state": "Uttar Pradesh",
    "pincode": "201005"
  },
  "__v": 0
},
{
  "_id": {
    "$oid": "66adb156a9805af7a920e049"
  },
  "userId": {
    "$oid": "66adb156a9805af7a920e047"
  },
  "brand": "Sunrise",
  "location": {
    "street": "ABC",
    "district": "Ghaziabad",
    "state": "Uttar Pradesh",
    "pincode": "201005"
  },
  "__v": 0
},
{
  "_id": {
    "$oid": "66adb157a9805af7a920e05b"
  },
  "userId": {
    "$oid": "66adb157a9805af7a920e059"
  },
  "brand": "reckonon",
  "location": {
    "street": "ABC",
    "district": "Ghaziabad",
    "state": "Uttar Pradesh",
    "pincode": "201005"
  },
  "__v": 0
},
{
  "_id": {
    "$oid": "66adb158a9805af7a920e06d"
  },
  "userId": {
    "$oid": "66adb158a9805af7a920e06b"
  },
  "brand": "Zebra",
  "location": {
    "street": "ABC",
    "district": "Ghaziabad",
    "state": "Uttar Pradesh",
    "pincode": "201005"
  },
  "__v": 0
},
{
  "_id": {
    "$oid": "66adb158a9805af7a920e07e"
  },
  "userId": {
    "$oid": "66adb158a9805af7a920e07c"
  },
  "brand": "Itiha",
  "location": {
    "street": "ABC",
    "district": "Ghaziabad",
    "state": "Uttar Pradesh",
    "pincode": "201005"
  },
  "__v": 0
},
{
  "_id": {
    "$oid": "66adb159a9805af7a920e08f"
  },
  "userId": {
    "$oid": "66adb159a9805af7a920e08d"
  },
  "brand": "Crocs",
  "location": {
    "street": "ABC",
    "district": "Ghaziabad",
    "state": "Uttar Pradesh",
    "pincode": "201005"
  },
  "__v": 0
},
{
  "_id": {
    "$oid": "66adb15aa9805af7a920e09f"
  },
  "userId": {
    "$oid": "66adb15aa9805af7a920e09d"
  },
  "brand": "V4STYLES",
  "location": {
    "street": "ABC",
    "district": "Ghaziabad",
    "state": "Uttar Pradesh",
    "pincode": "201005"
  },
  "__v": 0
},
{
  "_id": {
    "$oid": "66adb15ba9805af7a920e0ae"
  },
  "userId": {
    "$oid": "66adb15ba9805af7a920e0ac"
  },
  "brand": "HANSFOOTNFIT",
  "location": {
    "street": "ABC",
    "district": "Ghaziabad",
    "state": "Uttar Pradesh",
    "pincode": "201005"
  },
  "__v": 0
},
{
  "_id": {
    "$oid": "66adb15ba9805af7a920e0bd"
  },
  "userId": {
    "$oid": "66adb15ba9805af7a920e0bb"
  },
  "brand": "Selfiwear",
  "location": {
    "street": "ABC",
    "district": "Ghaziabad",
    "state": "Uttar Pradesh",
    "pincode": "201005"
  },
  "__v": 0
},
{
  "_id": {
    "$oid": "66adb15ca9805af7a920e0cd"
  },
  "userId": {
    "$oid": "66adb15ca9805af7a920e0cb"
  },
  "brand": "esoft",
  "location": {
    "street": "ABC",
    "district": "Ghaziabad",
    "state": "Uttar Pradesh",
    "pincode": "201005"
  },
  "__v": 0
},
{
  "_id": {
    "$oid": "66adb15ea9805af7a920e0ee"
  },
  "userId": {
    "$oid": "66adb15ea9805af7a920e0ec"
  },
  "brand": "CSBS Sale",
  "location": {
    "street": "ABC",
    "district": "Ghaziabad",
    "state": "Uttar Pradesh",
    "pincode": "201005"
  },
  "__v": 0
},
{
  "_id": {
    "$oid": "66adb15fa9805af7a920e106"
  },
  "userId": {
    "$oid": "66adb15fa9805af7a920e104"
  },
  "brand": "FIla",
  "location": {
    "street": "ABC",
    "district": "Ghaziabad",
    "state": "Uttar Pradesh",
    "pincode": "201005"
  },
  "__v": 0
},
{
  "_id": {
    "$oid": "66adb15fa9805af7a920e115"
  },
  "userId": {
    "$oid": "66adb15fa9805af7a920e113"
  },
  "brand": "INDIANO",
  "location": {
    "street": "ABC",
    "district": "Ghaziabad",
    "state": "Uttar Pradesh",
    "pincode": "201005"
  },
  "__v": 0
},
{
  "_id": {
    "$oid": "66adb160a9805af7a920e124"
  },
  "userId": {
    "$oid": "66adb160a9805af7a920e122"
  },
  "brand": "Niremo",
  "location": {
    "street": "ABC",
    "district": "Ghaziabad",
    "state": "Uttar Pradesh",
    "pincode": "201005"
  },
  "__v": 0
},
{
  "_id": {
    "$oid": "66adb161a9805af7a920e133"
  },
  "userId": {
    "$oid": "66adb161a9805af7a920e131"
  },
  "brand": "Lovely Chick",
  "location": {
    "street": "ABC",
    "district": "Ghaziabad",
    "state": "Uttar Pradesh",
    "pincode": "201005"
  },
  "__v": 0
},
{
  "_id": {
    "$oid": "66adb162a9805af7a920e142"
  },
  "userId": {
    "$oid": "66adb162a9805af7a920e140"
  },
  "brand": "Pavers England",
  "location": {
    "street": "ABC",
    "district": "Ghaziabad",
    "state": "Uttar Pradesh",
    "pincode": "201005"
  },
  "__v": 0
},
{
  "_id": {
    "$oid": "66adb163a9805af7a920e151"
  },
  "userId": {
    "$oid": "66adb163a9805af7a920e14f"
  },
  "brand": "TAB91",
  "location": {
    "street": "ABC",
    "district": "Ghaziabad",
    "state": "Uttar Pradesh",
    "pincode": "201005"
  },
  "__v": 0
},
{
  "_id": {
    "$oid": "66adb165a9805af7a920e169"
  },
  "userId": {
    "$oid": "66adb164a9805af7a920e167"
  },
  "brand": "Wardtrobe",
  "location": {
    "street": "ABC",
    "district": "Ghaziabad",
    "state": "Uttar Pradesh",
    "pincode": "201005"
  },
  "__v": 0
},
{
  "_id": {
    "$oid": "66adb166a9805af7a920e178"
  },
  "userId": {
    "$oid": "66adb166a9805af7a920e176"
  },
  "brand": "Mineral",
  "location": {
    "street": "ABC",
    "district": "Ghaziabad",
    "state": "Uttar Pradesh",
    "pincode": "201005"
  },
  "__v": 0
},
{
  "_id": {
    "$oid": "66adb168a9805af7a920e187"
  },
  "userId": {
    "$oid": "66adb168a9805af7a920e185"
  },
  "brand": "Zastraa",
  "location": {
    "street": "ABC",
    "district": "Ghaziabad",
    "state": "Uttar Pradesh",
    "pincode": "201005"
  },
  "__v": 0
},
{
  "_id": {
    "$oid": "66adb169a9805af7a920e196"
  },
  "userId": {
    "$oid": "66adb169a9805af7a920e194"
  },
  "brand": "LA ATTIRE",
  "location": {
    "street": "ABC",
    "district": "Ghaziabad",
    "state": "Uttar Pradesh",
    "pincode": "201005"
  },
  "__v": 0
},
{
  "_id": {
    "$oid": "66adb16aa9805af7a920e1a5"
  },
  "userId": {
    "$oid": "66adb16aa9805af7a920e1a3"
  },
  "brand": "Abony",
  "location": {
    "street": "ABC",
    "district": "Ghaziabad",
    "state": "Uttar Pradesh",
    "pincode": "201005"
  },
  "__v": 0
},
{
  "_id": {
    "$oid": "66adb16ca9805af7a920e1bd"
  },
  "userId": {
    "$oid": "66adb16ca9805af7a920e1bb"
  },
  "brand": "Corona",
  "location": {
    "street": "ABC",
    "district": "Ghaziabad",
    "state": "Uttar Pradesh",
    "pincode": "201005"
  },
  "__v": 0
},
{
  "_id": {
    "$oid": "66adb170a9805af7a920e1e0"
  },
  "userId": {
    "$oid": "66adb170a9805af7a920e1de"
  },
  "brand": "Digni",
  "location": {
    "street": "ABC",
    "district": "Ghaziabad",
    "state": "Uttar Pradesh",
    "pincode": "201005"
  },
  "__v": 0
},
{
  "_id": {
    "$oid": "66adb172a9805af7a920e1f0"
  },
  "userId": {
    "$oid": "66adb172a9805af7a920e1ee"
  },
  "brand": "Delberto",
  "location": {
    "street": "ABC",
    "district": "Ghaziabad",
    "state": "Uttar Pradesh",
    "pincode": "201005"
  },
  "__v": 0
},
{
  "_id": {
    "$oid": "66adb174a9805af7a920e1ff"
  },
  "userId": {
    "$oid": "66adb174a9805af7a920e1fd"
  },
  "brand": "Bootwale",
  "location": {
    "street": "ABC",
    "district": "Ghaziabad",
    "state": "Uttar Pradesh",
    "pincode": "201005"
  },
  "__v": 0
},
{
  "_id": {
    "$oid": "66adb175a9805af7a920e20e"
  },
  "userId": {
    "$oid": "66adb174a9805af7a920e20c"
  },
  "brand": "CANMP",
  "location": {
    "street": "ABC",
    "district": "Ghaziabad",
    "state": "Uttar Pradesh",
    "pincode": "201005"
  },
  "__v": 0
},
{
  "_id": {
    "$oid": "66adb176a9805af7a920e21d"
  },
  "userId": {
    "$oid": "66adb176a9805af7a920e21b"
  },
  "brand": "Oranje",
  "location": {
    "street": "ABC",
    "district": "Ghaziabad",
    "state": "Uttar Pradesh",
    "pincode": "201005"
  },
  "__v": 0
},
{
  "_id": {
    "$oid": "66adb177a9805af7a920e22c"
  },
  "userId": {
    "$oid": "66adb177a9805af7a920e22a"
  },
  "brand": "Adidas",
  "location": {
    "street": "ABC",
    "district": "Ghaziabad",
    "state": "Uttar Pradesh",
    "pincode": "201005"
  },
  "__v": 0
},
{
  "_id": {
    "$oid": "66adb177a9805af7a920e23c"
  },
  "userId": {
    "$oid": "66adb177a9805af7a920e23a"
  },
  "brand": "STREET LONDON",
  "location": {
    "street": "ABC",
    "district": "Ghaziabad",
    "state": "Uttar Pradesh",
    "pincode": "201005"
  },
  "__v": 0
},
{
  "_id": {
    "$oid": "66adb178a9805af7a920e24b"
  },
  "userId": {
    "$oid": "66adb178a9805af7a920e249"
  },
  "brand": "Ennoble",
  "location": {
    "street": "ABC",
    "district": "Ghaziabad",
    "state": "Uttar Pradesh",
    "pincode": "201005"
  },
  "__v": 0
},
{
  "_id": {
    "$oid": "66adb179a9805af7a920e25b"
  },
  "userId": {
    "$oid": "66adb179a9805af7a920e259"
  },
  "brand": "Inc.5",
  "location": {
    "street": "ABC",
    "district": "Ghaziabad",
    "state": "Uttar Pradesh",
    "pincode": "201005"
  },
  "__v": 0
},
{
  "_id": {
    "$oid": "66adb17ba9805af7a920e274"
  },
  "userId": {
    "$oid": "66adb17ba9805af7a920e272"
  },
  "brand": "addee",
  "location": {
    "street": "ABC",
    "district": "Ghaziabad",
    "state": "Uttar Pradesh",
    "pincode": "201005"
  },
  "__v": 0
},
{
  "_id": {
    "$oid": "66adb17ca9805af7a920e285"
  },
  "userId": {
    "$oid": "66adb17ca9805af7a920e283"
  },
  "brand": "BURDY",
  "location": {
    "street": "ABC",
    "district": "Ghaziabad",
    "state": "Uttar Pradesh",
    "pincode": "201005"
  },
  "__v": 0
},
{
  "_id": {
    "$oid": "66adb17da9805af7a920e294"
  },
  "userId": {
    "$oid": "66adb17da9805af7a920e292"
  },
  "brand": "Simitoes",
  "location": {
    "street": "ABC",
    "district": "Ghaziabad",
    "state": "Uttar Pradesh",
    "pincode": "201005"
  },
  "__v": 0
},
{
  "_id": {
    "$oid": "66adb17ea9805af7a920e2a4"
  },
  "userId": {
    "$oid": "66adb17ea9805af7a920e2a2"
  },
  "brand": "Asian",
  "location": {
    "street": "ABC",
    "district": "Ghaziabad",
    "state": "Uttar Pradesh",
    "pincode": "201005"
  },
  "__v": 0
},
{
  "_id": {
    "$oid": "66adb17fa9805af7a920e2b3"
  },
  "userId": {
    "$oid": "66adb17fa9805af7a920e2b1"
  },
  "brand": "VAGON",
  "location": {
    "street": "ABC",
    "district": "Ghaziabad",
    "state": "Uttar Pradesh",
    "pincode": "201005"
  },
  "__v": 0
},
{
  "_id": {
    "$oid": "66adb180a9805af7a920e2c2"
  },
  "userId": {
    "$oid": "66adb180a9805af7a920e2c0"
  },
  "brand": "X-WELL",
  "location": {
    "street": "ABC",
    "district": "Ghaziabad",
    "state": "Uttar Pradesh",
    "pincode": "201005"
  },
  "__v": 0
},
{
  "_id": {
    "$oid": "66adb181a9805af7a920e2d3"
  },
  "userId": {
    "$oid": "66adb181a9805af7a920e2d1"
  },
  "brand": "FS Mini Klub",
  "location": {
    "street": "ABC",
    "district": "Ghaziabad",
    "state": "Uttar Pradesh",
    "pincode": "201005"
  },
  "__v": 0
},
{
  "_id": {
    "$oid": "66adb183a9805af7a920e2e3"
  },
  "userId": {
    "$oid": "66adb183a9805af7a920e2e1"
  },
  "brand": "Speedo",
  "location": {
    "street": "ABC",
    "district": "Ghaziabad",
    "state": "Uttar Pradesh",
    "pincode": "201005"
  },
  "__v": 0
},
{
  "_id": {
    "$oid": "66adb187a9805af7a920e30d"
  },
  "userId": {
    "$oid": "66adb186a9805af7a920e30b"
  },
  "brand": "Mothercare",
  "location": {
    "street": "ABC",
    "district": "Ghaziabad",
    "state": "Uttar Pradesh",
    "pincode": "201005"
  },
  "__v": 0
},
{
  "_id": {
    "$oid": "66adb188a9805af7a920e31e"
  },
  "userId": {
    "$oid": "66adb188a9805af7a920e31c"
  },
  "brand": "Kitts N Nevis",
  "location": {
    "street": "ABC",
    "district": "Ghaziabad",
    "state": "Uttar Pradesh",
    "pincode": "201005"
  },
  "__v": 0
},
{
  "_id": {
    "$oid": "66adb189a9805af7a920e32e"
  },
  "userId": {
    "$oid": "66adb188a9805af7a920e32c"
  },
  "brand": "fashion bazar",
  "location": {
    "street": "ABC",
    "district": "Ghaziabad",
    "state": "Uttar Pradesh",
    "pincode": "201005"
  },
  "__v": 0
},
{
  "_id": {
    "$oid": "66adb18aa9805af7a920e33e"
  },
  "userId": {
    "$oid": "66adb18aa9805af7a920e33c"
  },
  "brand": "Philigree",
  "location": {
    "street": "ABC",
    "district": "Ghaziabad",
    "state": "Uttar Pradesh",
    "pincode": "201005"
  },
  "__v": 0
},
{
  "_id": {
    "$oid": "66adb18ba9805af7a920e34d"
  },
  "userId": {
    "$oid": "66adb18aa9805af7a920e34b"
  },
  "brand": "CraftGhar",
  "location": {
    "street": "ABC",
    "district": "Ghaziabad",
    "state": "Uttar Pradesh",
    "pincode": "201005"
  },
  "__v": 0
},
{
  "_id": {
    "$oid": "66adb18ca9805af7a920e35f"
  },
  "userId": {
    "$oid": "66adb18ba9805af7a920e35d"
  },
  "brand": "BUMPKIN",
  "location": {
    "street": "ABC",
    "district": "Ghaziabad",
    "state": "Uttar Pradesh",
    "pincode": "201005"
  },
  "__v": 0
},
{
  "_id": {
    "$oid": "66adb18ca9805af7a920e36f"
  },
  "userId": {
    "$oid": "66adb18ca9805af7a920e36d"
  },
  "brand": "ENTEASE",
  "location": {
    "street": "ABC",
    "district": "Ghaziabad",
    "state": "Uttar Pradesh",
    "pincode": "201005"
  },
  "__v": 0
},
{
  "_id": {
    "$oid": "66adb18ea9805af7a920e37e"
  },
  "userId": {
    "$oid": "66adb18da9805af7a920e37c"
  },
  "brand": "Dolphin Product",
  "location": {
    "street": "ABC",
    "district": "Ghaziabad",
    "state": "Uttar Pradesh",
    "pincode": "201005"
  },
  "__v": 0
},
{
  "_id": {
    "$oid": "66adb18fa9805af7a920e38d"
  },
  "userId": {
    "$oid": "66adb18fa9805af7a920e38b"
  },
  "brand": "Only",
  "location": {
    "street": "ABC",
    "district": "Ghaziabad",
    "state": "Uttar Pradesh",
    "pincode": "201005"
  },
  "__v": 0
},
{
  "_id": {
    "$oid": "66adb190a9805af7a920e39c"
  },
  "userId": {
    "$oid": "66adb190a9805af7a920e39a"
  },
  "brand": "American Swan",
  "location": {
    "street": "ABC",
    "district": "Ghaziabad",
    "state": "Uttar Pradesh",
    "pincode": "201005"
  },
  "__v": 0
},
{
  "_id": {
    "$oid": "66adb191a9805af7a920e3ab"
  },
  "userId": {
    "$oid": "66adb190a9805af7a920e3a9"
  },
  "brand": "Finger's",
  "location": {
    "street": "ABC",
    "district": "Ghaziabad",
    "state": "Uttar Pradesh",
    "pincode": "201005"
  },
  "__v": 0
},
{
  "_id": {
    "$oid": "66adb192a9805af7a920e3ba"
  },
  "userId": {
    "$oid": "66adb191a9805af7a920e3b8"
  },
  "brand": "Done By None",
  "location": {
    "street": "ABC",
    "district": "Ghaziabad",
    "state": "Uttar Pradesh",
    "pincode": "201005"
  },
  "__v": 0
},
{
  "_id": {
    "$oid": "66adb193a9805af7a920e3ca"
  },
  "userId": {
    "$oid": "66adb193a9805af7a920e3c8"
  },
  "brand": "BrandTrendz",
  "location": {
    "street": "ABC",
    "district": "Ghaziabad",
    "state": "Uttar Pradesh",
    "pincode": "201005"
  },
  "__v": 0
},
{
  "_id": {
    "$oid": "66adb194a9805af7a920e3da"
  },
  "userId": {
    "$oid": "66adb194a9805af7a920e3d8"
  },
  "brand": "Pruto",
  "location": {
    "street": "ABC",
    "district": "Ghaziabad",
    "state": "Uttar Pradesh",
    "pincode": "201005"
  },
  "__v": 0
},
{
  "_id": {
    "$oid": "66adb195a9805af7a920e3e9"
  },
  "userId": {
    "$oid": "66adb195a9805af7a920e3e7"
  },
  "brand": "URBAN SHAUK",
  "location": {
    "street": "ABC",
    "district": "Ghaziabad",
    "state": "Uttar Pradesh",
    "pincode": "201005"
  },
  "__v": 0
},
{
  "_id": {
    "$oid": "66adb196a9805af7a920e3f8"
  },
  "userId": {
    "$oid": "66adb195a9805af7a920e3f6"
  },
  "brand": "HugMe.fashion",
  "location": {
    "street": "ABC",
    "district": "Ghaziabad",
    "state": "Uttar Pradesh",
    "pincode": "201005"
  },
  "__v": 0
},
{
  "_id": {
    "$oid": "66adb196a9805af7a920e407"
  },
  "userId": {
    "$oid": "66adb196a9805af7a920e405"
  },
  "brand": "DWM",
  "location": {
    "street": "ABC",
    "district": "Ghaziabad",
    "state": "Uttar Pradesh",
    "pincode": "201005"
  },
  "__v": 0
},
{
  "_id": {
    "$oid": "66adb198a9805af7a920e416"
  },
  "userId": {
    "$oid": "66adb197a9805af7a920e414"
  },
  "brand": "Pearls India",
  "location": {
    "street": "ABC",
    "district": "Ghaziabad",
    "state": "Uttar Pradesh",
    "pincode": "201005"
  },
  "__v": 0
},
{
  "_id": {
    "$oid": "66adb198a9805af7a920e428"
  },
  "userId": {
    "$oid": "66adb198a9805af7a920e426"
  },
  "brand": "Mrignayaneei",
  "location": {
    "street": "ABC",
    "district": "Ghaziabad",
    "state": "Uttar Pradesh",
    "pincode": "201005"
  },
  "__v": 0
},
{
  "_id": {
    "$oid": "66adb19aa9805af7a920e437"
  },
  "userId": {
    "$oid": "66adb19aa9805af7a920e435"
  },
  "brand": "Blissdrizzle",
  "location": {
    "street": "ABC",
    "district": "Ghaziabad",
    "state": "Uttar Pradesh",
    "pincode": "201005"
  },
  "__v": 0
},
{
  "_id": {
    "$oid": "66adb19ba9805af7a920e446"
  },
  "userId": {
    "$oid": "66adb19ba9805af7a920e444"
  },
  "brand": "Jazzup",
  "location": {
    "street": "ABC",
    "district": "Ghaziabad",
    "state": "Uttar Pradesh",
    "pincode": "201005"
  },
  "__v": 0
},
{
  "_id": {
    "$oid": "66adb19ea9805af7a920e45e"
  },
  "userId": {
    "$oid": "66adb19ea9805af7a920e45c"
  },
  "brand": "Rama",
  "location": {
    "street": "ABC",
    "district": "Ghaziabad",
    "state": "Uttar Pradesh",
    "pincode": "201005"
  },
  "__v": 0
},
{
  "_id": {
    "$oid": "66adb19fa9805af7a920e470"
  },
  "userId": {
    "$oid": "66adb19fa9805af7a920e46e"
  },
  "brand": "VES",
  "location": {
    "street": "ABC",
    "district": "Ghaziabad",
    "state": "Uttar Pradesh",
    "pincode": "201005"
  },
  "__v": 0
},
{
  "_id": {
    "$oid": "66adb1a3a9805af7a920e482"
  },
  "userId": {
    "$oid": "66adb1a3a9805af7a920e480"
  },
  "brand": "Kapa",
  "location": {
    "street": "ABC",
    "district": "Ghaziabad",
    "state": "Uttar Pradesh",
    "pincode": "201005"
  },
  "__v": 0
},
{
  "_id": {
    "$oid": "66adb1a8a9805af7a920e491"
  },
  "userId": {
    "$oid": "66adb1a8a9805af7a920e48f"
  },
  "brand": "CORA",
  "location": {
    "street": "ABC",
    "district": "Ghaziabad",
    "state": "Uttar Pradesh",
    "pincode": "201005"
  },
  "__v": 0
},
{
  "_id": {
    "$oid": "66adb1aaa9805af7a920e4a9"
  },
  "userId": {
    "$oid": "66adb1aaa9805af7a920e4a7"
  },
  "brand": "RETAIL SHOP INDIA",
  "location": {
    "street": "ABC",
    "district": "Ghaziabad",
    "state": "Uttar Pradesh",
    "pincode": "201005"
  },
  "__v": 0
},
{
  "_id": {
    "$oid": "66adb1aaa9805af7a920e4b8"
  },
  "userId": {
    "$oid": "66adb1aaa9805af7a920e4b6"
  },
  "brand": "YoudyCo",
  "location": {
    "street": "ABC",
    "district": "Ghaziabad",
    "state": "Uttar Pradesh",
    "pincode": "201005"
  },
  "__v": 0
},
{
  "_id": {
    "$oid": "66adb1aca9805af7a920e4d0"
  },
  "userId": {
    "$oid": "66adb1aca9805af7a920e4ce"
  },
  "brand": "domestiq",
  "location": {
    "street": "ABC",
    "district": "Ghaziabad",
    "state": "Uttar Pradesh",
    "pincode": "201005"
  },
  "__v": 0
},
{
  "_id": {
    "$oid": "66adb1ada9805af7a920e4df"
  },
  "userId": {
    "$oid": "66adb1ada9805af7a920e4dd"
  },
  "brand": "Guardian",
  "location": {
    "street": "ABC",
    "district": "Ghaziabad",
    "state": "Uttar Pradesh",
    "pincode": "201005"
  },
  "__v": 0
},
{
  "_id": {
    "$oid": "66adb1ada9805af7a920e4ee"
  },
  "userId": {
    "$oid": "66adb1ada9805af7a920e4ec"
  },
  "brand": "BODYSENSE",
  "location": {
    "street": "ABC",
    "district": "Ghaziabad",
    "state": "Uttar Pradesh",
    "pincode": "201005"
  },
  "__v": 0
},
{
  "_id": {
    "$oid": "66adb1aea9805af7a920e4fe"
  },
  "userId": {
    "$oid": "66adb1aea9805af7a920e4fc"
  },
  "brand": "Odoky",
  "location": {
    "street": "ABC",
    "district": "Ghaziabad",
    "state": "Uttar Pradesh",
    "pincode": "201005"
  },
  "__v": 0
},
{
  "_id": {
    "$oid": "66adb1afa9805af7a920e50d"
  },
  "userId": {
    "$oid": "66adb1afa9805af7a920e50b"
  },
  "brand": "Fashion Plus",
  "location": {
    "street": "ABC",
    "district": "Ghaziabad",
    "state": "Uttar Pradesh",
    "pincode": "201005"
  },
  "__v": 0
},
{
  "_id": {
    "$oid": "66adb1b0a9805af7a920e51c"
  },
  "userId": {
    "$oid": "66adb1b0a9805af7a920e51a"
  },
  "brand": "Black",
  "location": {
    "street": "ABC",
    "district": "Ghaziabad",
    "state": "Uttar Pradesh",
    "pincode": "201005"
  },
  "__v": 0
},
{
  "_id": {
    "$oid": "66adb1b1a9805af7a920e52b"
  },
  "userId": {
    "$oid": "66adb1b1a9805af7a920e529"
  },
  "brand": "Brown",
  "location": {
    "street": "ABC",
    "district": "Ghaziabad",
    "state": "Uttar Pradesh",
    "pincode": "201005"
  },
  "__v": 0
},
{
  "_id": {
    "$oid": "66adb1b2a9805af7a920e53a"
  },
  "userId": {
    "$oid": "66adb1b1a9805af7a920e538"
  },
  "brand": "Green",
  "location": {
    "street": "ABC",
    "district": "Ghaziabad",
    "state": "Uttar Pradesh",
    "pincode": "201005"
  },
  "__v": 0
},
{
  "_id": {
    "$oid": "66adb1b4a9805af7a920e55b"
  },
  "userId": {
    "$oid": "66adb1b4a9805af7a920e559"
  },
  "brand": "Purple",
  "location": {
    "street": "ABC",
    "district": "Ghaziabad",
    "state": "Uttar Pradesh",
    "pincode": "201005"
  },
  "__v": 0
},
{
  "_id": {
    "$oid": "66adb1b6a9805af7a920e573"
  },
  "userId": {
    "$oid": "66adb1b6a9805af7a920e571"
  },
  "brand": "Red",
  "location": {
    "street": "ABC",
    "district": "Ghaziabad",
    "state": "Uttar Pradesh",
    "pincode": "201005"
  },
  "__v": 0
},
{
  "_id": {
    "$oid": "66adb1b8a9805af7a920e58b"
  },
  "userId": {
    "$oid": "66adb1b8a9805af7a920e589"
  },
  "brand": "Light Pink",
  "location": {
    "street": "ABC",
    "district": "Ghaziabad",
    "state": "Uttar Pradesh",
    "pincode": "201005"
  },
  "__v": 0
},
{
  "_id": {
    "$oid": "66adb1b9a9805af7a920e59a"
  },
  "userId": {
    "$oid": "66adb1b8a9805af7a920e598"
  },
  "brand": "Blue",
  "location": {
    "street": "ABC",
    "district": "Ghaziabad",
    "state": "Uttar Pradesh",
    "pincode": "201005"
  },
  "__v": 0
},
{
  "_id": {
    "$oid": "66adb1bca9805af7a920e5bb"
  },
  "userId": {
    "$oid": "66adb1bba9805af7a920e5b9"
  },
  "brand": "White",
  "location": {
    "street": "ABC",
    "district": "Ghaziabad",
    "state": "Uttar Pradesh",
    "pincode": "201005"
  },
  "__v": 0
},
{
  "_id": {
    "$oid": "66adb1bda9805af7a920e5ca"
  },
  "userId": {
    "$oid": "66adb1bca9805af7a920e5c8"
  },
  "brand": "Maroon",
  "location": {
    "street": "ABC",
    "district": "Ghaziabad",
    "state": "Uttar Pradesh",
    "pincode": "201005"
  },
  "__v": 0
},
{
  "_id": {
    "$oid": "66adb1c2a9805af7a920e60f"
  },
  "userId": {
    "$oid": "66adb1c2a9805af7a920e60d"
  },
  "brand": "Grey",
  "location": {
    "street": "ABC",
    "district": "Ghaziabad",
    "state": "Uttar Pradesh",
    "pincode": "201005"
  },
  "__v": 0
},
{
  "_id": {
    "$oid": "66adb1c4a9805af7a920e627"
  },
  "userId": {
    "$oid": "66adb1c4a9805af7a920e625"
  },
  "brand": "Beige",
  "location": {
    "street": "ABC",
    "district": "Ghaziabad",
    "state": "Uttar Pradesh",
    "pincode": "201005"
  },
  "__v": 0
},
{
  "_id": {
    "$oid": "66adb1c8a9805af7a920e65a"
  },
  "userId": {
    "$oid": "66adb1c8a9805af7a920e658"
  },
  "brand": "Orange",
  "location": {
    "street": "ABC",
    "district": "Ghaziabad",
    "state": "Uttar Pradesh",
    "pincode": "201005"
  },
  "__v": 0
},
{
  "_id": {
    "$oid": "66adb1c9a9805af7a920e672"
  },
  "userId": {
    "$oid": "66adb1c9a9805af7a920e670"
  },
  "brand": "Sky Blue",
  "location": {
    "street": "ABC",
    "district": "Ghaziabad",
    "state": "Uttar Pradesh",
    "pincode": "201005"
  },
  "__v": 0
},
{
  "_id": {
    "$oid": "66adb1cca9805af7a920e6a5"
  },
  "userId": {
    "$oid": "66adb1cca9805af7a920e6a3"
  },
  "brand": "Pink",
  "location": {
    "street": "ABC",
    "district": "Ghaziabad",
    "state": "Uttar Pradesh",
    "pincode": "201005"
  },
  "__v": 0
},
{
  "_id": {
    "$oid": "66adb1cda9805af7a920e6b4"
  },
  "userId": {
    "$oid": "66adb1cda9805af7a920e6b2"
  },
  "brand": "Baby Pink",
  "location": {
    "street": "ABC",
    "district": "Ghaziabad",
    "state": "Uttar Pradesh",
    "pincode": "201005"
  },
  "__v": 0
},
{
  "_id": {
    "$oid": "66adb1d1a9805af7a920e6f0"
  },
  "userId": {
    "$oid": "66adb1d1a9805af7a920e6ee"
  },
  "brand": "Light Orange",
  "location": {
    "street": "ABC",
    "district": "Ghaziabad",
    "state": "Uttar Pradesh",
    "pincode": "201005"
  },
  "__v": 0
},
{
  "_id": {
    "$oid": "66adb1d8a9805af7a920e759"
  },
  "userId": {
    "$oid": "66adb1d8a9805af7a920e757"
  },
  "brand": "Coffee",
  "location": {
    "street": "ABC",
    "district": "Ghaziabad",
    "state": "Uttar Pradesh",
    "pincode": "201005"
  },
  "__v": 0
},
{
  "_id": {
    "$oid": "66adb1f7a9805af7a920e8c7"
  },
  "userId": {
    "$oid": "66adb1f7a9805af7a920e8c5"
  },
  "brand": "Rouge Red",
  "location": {
    "street": "ABC",
    "district": "Ghaziabad",
    "state": "Uttar Pradesh",
    "pincode": "201005"
  },
  "__v": 0
},
{
  "_id": {
    "$oid": "66adb1f9a9805af7a920e8df"
  },
  "userId": {
    "$oid": "66adb1f9a9805af7a920e8dd"
  },
  "brand": "Dark Red",
  "location": {
    "street": "ABC",
    "district": "Ghaziabad",
    "state": "Uttar Pradesh",
    "pincode": "201005"
  },
  "__v": 0
},
{
  "_id": {
    "$oid": "66adb1faa9805af7a920e8ee"
  },
  "userId": {
    "$oid": "66adb1faa9805af7a920e8ec"
  },
  "brand": "Black & Yellow",
  "location": {
    "street": "ABC",
    "district": "Ghaziabad",
    "state": "Uttar Pradesh",
    "pincode": "201005"
  },
  "__v": 0
},
{
  "_id": {
    "$oid": "66adb221a9805af7a920eaec"
  },
  "userId": {
    "$oid": "66adb221a9805af7a920eaea"
  },
  "brand": "Yellow",
  "location": {
    "street": "ABC",
    "district": "Ghaziabad",
    "state": "Uttar Pradesh",
    "pincode": "201005"
  },
  "__v": 0
},
{
  "_id": {
    "$oid": "66adb224a9805af7a920eb0d"
  },
  "userId": {
    "$oid": "66adb223a9805af7a920eb0b"
  },
  "brand": "Peach",
  "location": {
    "street": "ABC",
    "district": "Ghaziabad",
    "state": "Uttar Pradesh",
    "pincode": "201005"
  },
  "__v": 0
},
{
  "_id": {
    "$oid": "66adb225a9805af7a920eb25"
  },
  "userId": {
    "$oid": "66adb225a9805af7a920eb23"
  },
  "brand": "Leopard Print",
  "location": {
    "street": "ABC",
    "district": "Ghaziabad",
    "state": "Uttar Pradesh",
    "pincode": "201005"
  },
  "__v": 0
},
{
  "_id": {
    "$oid": "66adb226a9805af7a920eb34"
  },
  "userId": {
    "$oid": "66adb226a9805af7a920eb32"
  },
  "brand": "Dark Grey",
  "location": {
    "street": "ABC",
    "district": "Ghaziabad",
    "state": "Uttar Pradesh",
    "pincode": "201005"
  },
  "__v": 0
},
{
  "_id": {
    "$oid": "66adb229a9805af7a920eb55"
  },
  "userId": {
    "$oid": "66adb229a9805af7a920eb53"
  },
  "brand": "Multicolor",
  "location": {
    "street": "ABC",
    "district": "Ghaziabad",
    "state": "Uttar Pradesh",
    "pincode": "201005"
  },
  "__v": 0
},
{
  "_id": {
    "$oid": "66adb22aa9805af7a920eb64"
  },
  "userId": {
    "$oid": "66adb22aa9805af7a920eb62"
  },
  "brand": "Light Green",
  "location": {
    "street": "ABC",
    "district": "Ghaziabad",
    "state": "Uttar Pradesh",
    "pincode": "201005"
  },
  "__v": 0
},
{
  "_id": {
    "$oid": "66adb22ca9805af7a920eb73"
  },
  "userId": {
    "$oid": "66adb22ba9805af7a920eb71"
  },
  "brand": "Multi",
  "location": {
    "street": "ABC",
    "district": "Ghaziabad",
    "state": "Uttar Pradesh",
    "pincode": "201005"
  },
  "__v": 0
},
{
  "_id": {
    "$oid": "66adb237a9805af7a920ebee"
  },
  "userId": {
    "$oid": "66adb237a9805af7a920ebec"
  },
  "brand": "Skin",
  "location": {
    "street": "ABC",
    "district": "Ghaziabad",
    "state": "Uttar Pradesh",
    "pincode": "201005"
  },
  "__v": 0
},
{
  "_id": {
    "$oid": "66adb242a9805af7a920ec8d"
  },
  "userId": {
    "$oid": "66adb242a9805af7a920ec8b"
  },
  "brand": "Dark Pink",
  "location": {
    "street": "ABC",
    "district": "Ghaziabad",
    "state": "Uttar Pradesh",
    "pincode": "201005"
  },
  "__v": 0
},
{
  "_id": {
    "$oid": "66adb245a9805af7a920ecb7"
  },
  "userId": {
    "$oid": "66adb245a9805af7a920ecb5"
  },
  "brand": "Light Blue",
  "location": {
    "street": "ABC",
    "district": "Ghaziabad",
    "state": "Uttar Pradesh",
    "pincode": "201005"
  },
  "__v": 0
},
{
  "_id": {
    "$oid": "66adb251a9805af7a920ed44"
  },
  "userId": {
    "$oid": "66adb250a9805af7a920ed42"
  },
  "brand": "Cherry",
  "location": {
    "street": "ABC",
    "district": "Ghaziabad",
    "state": "Uttar Pradesh",
    "pincode": "201005"
  },
  "__v": 0
},
{
  "_id": {
    "$oid": "66adb254a9805af7a920ed77"
  },
  "userId": {
    "$oid": "66adb254a9805af7a920ed75"
  },
  "brand": "Powder Blue",
  "location": {
    "street": "ABC",
    "district": "Ghaziabad",
    "state": "Uttar Pradesh",
    "pincode": "201005"
  },
  "__v": 0
},
{
  "_id": {
    "$oid": "66adb256a9805af7a920ed98"
  },
  "userId": {
    "$oid": "66adb256a9805af7a920ed96"
  },
  "brand": "Black Multi",
  "location": {
    "street": "ABC",
    "district": "Ghaziabad",
    "state": "Uttar Pradesh",
    "pincode": "201005"
  },
  "__v": 0
},
{
  "_id": {
    "$oid": "66adb262a9805af7a920ee2e"
  },
  "userId": {
    "$oid": "66adb262a9805af7a920ee2c"
  },
  "brand": "Turquise",
  "location": {
    "street": "ABC",
    "district": "Ghaziabad",
    "state": "Uttar Pradesh",
    "pincode": "201005"
  },
  "__v": 0
},
{
  "_id": {
    "$oid": "66adb264a9805af7a920ee4f"
  },
  "userId": {
    "$oid": "66adb264a9805af7a920ee4d"
  },
  "brand": "Grey & Black",
  "location": {
    "street": "ABC",
    "district": "Ghaziabad",
    "state": "Uttar Pradesh",
    "pincode": "201005"
  },
  "__v": 0
},
{
  "_id": {
    "$oid": "66adb266a9805af7a920ee67"
  },
  "userId": {
    "$oid": "66adb266a9805af7a920ee65"
  },
  "brand": "Carrot Red",
  "location": {
    "street": "ABC",
    "district": "Ghaziabad",
    "state": "Uttar Pradesh",
    "pincode": "201005"
  },
  "__v": 0
},
{
  "_id": {
    "$oid": "66adb26ea9805af7a920eed9"
  },
  "userId": {
    "$oid": "66adb26ea9805af7a920eed7"
  },
  "brand": "Light Purple",
  "location": {
    "street": "ABC",
    "district": "Ghaziabad",
    "state": "Uttar Pradesh",
    "pincode": "201005"
  },
  "__v": 0
},
{
  "_id": {
    "$oid": "66adb293a9805af7a920f0bc"
  },
  "userId": {
    "$oid": "66adb293a9805af7a920f0ba"
  },
  "brand": "RAA",
  "location": {
    "street": "ABC",
    "district": "Ghaziabad",
    "state": "Uttar Pradesh",
    "pincode": "201005"
  },
  "__v": 0
},
{
  "_id": {
    "$oid": "66adb294a9805af7a920f0cc"
  },
  "userId": {
    "$oid": "66adb294a9805af7a920f0ca"
  },
  "brand": "diva boutique",
  "location": {
    "street": "ABC",
    "district": "Ghaziabad",
    "state": "Uttar Pradesh",
    "pincode": "201005"
  },
  "__v": 0
},
{
  "_id": {
    "$oid": "66adb295a9805af7a920f0e4"
  },
  "userId": {
    "$oid": "66adb295a9805af7a920f0e2"
  },
  "brand": "JDK NOVELTY",
  "location": {
    "street": "ABC",
    "district": "Ghaziabad",
    "state": "Uttar Pradesh",
    "pincode": "201005"
  },
  "__v": 0
},
{
  "_id": {
    "$oid": "66adb299a9805af7a920f10e"
  },
  "userId": {
    "$oid": "66adb299a9805af7a920f10c"
  },
  "brand": "HK-Impex",
  "location": {
    "street": "ABC",
    "district": "Ghaziabad",
    "state": "Uttar Pradesh",
    "pincode": "201005"
  },
  "__v": 0
},
{
  "_id": {
    "$oid": "66adb29aa9805af7a920f11d"
  },
  "userId": {
    "$oid": "66adb29aa9805af7a920f11b"
  },
  "brand": "Fpc Creations",
  "location": {
    "street": "ABC",
    "district": "Ghaziabad",
    "state": "Uttar Pradesh",
    "pincode": "201005"
  },
  "__v": 0
},
{
  "_id": {
    "$oid": "66adb29ba9805af7a920f12c"
  },
  "userId": {
    "$oid": "66adb29ba9805af7a920f12a"
  },
  "brand": "Oggo Deo",
  "location": {
    "street": "ABC",
    "district": "Ghaziabad",
    "state": "Uttar Pradesh",
    "pincode": "201005"
  },
  "__v": 0
},
{
  "_id": {
    "$oid": "66adb29fa9805af7a920f168"
  },
  "userId": {
    "$oid": "66adb29fa9805af7a920f166"
  },
  "brand": "trustedsnap",
  "location": {
    "street": "ABC",
    "district": "Ghaziabad",
    "state": "Uttar Pradesh",
    "pincode": "201005"
  },
  "__v": 0
},
{
  "_id": {
    "$oid": "66adb2a1a9805af7a920f180"
  },
  "userId": {
    "$oid": "66adb2a1a9805af7a920f17e"
  },
  "brand": "Vero Moda",
  "location": {
    "street": "ABC",
    "district": "Ghaziabad",
    "state": "Uttar Pradesh",
    "pincode": "201005"
  },
  "__v": 0
},
{
  "_id": {
    "$oid": "66adb2a3a9805af7a920f198"
  },
  "userId": {
    "$oid": "66adb2a3a9805af7a920f196"
  },
  "brand": "GLAMWALK",
  "location": {
    "street": "ABC",
    "district": "Ghaziabad",
    "state": "Uttar Pradesh",
    "pincode": "201005"
  },
  "__v": 0
},
{
  "_id": {
    "$oid": "66adb2a3a9805af7a920f1a7"
  },
  "userId": {
    "$oid": "66adb2a3a9805af7a920f1a5"
  },
  "brand": "Nickolas",
  "location": {
    "street": "ABC",
    "district": "Ghaziabad",
    "state": "Uttar Pradesh",
    "pincode": "201005"
  },
  "__v": 0
},
{
  "_id": {
    "$oid": "66adb2a5a9805af7a920f1bf"
  },
  "userId": {
    "$oid": "66adb2a5a9805af7a920f1bd"
  },
  "brand": "Klaur Melbourne",
  "location": {
    "street": "ABC",
    "district": "Ghaziabad",
    "state": "Uttar Pradesh",
    "pincode": "201005"
  },
  "__v": 0
},
{
  "_id": {
    "$oid": "66adb2aaa9805af7a920f1f2"
  },
  "userId": {
    "$oid": "66adb2aaa9805af7a920f1f0"
  },
  "brand": "Recrafto",
  "location": {
    "street": "ABC",
    "district": "Ghaziabad",
    "state": "Uttar Pradesh",
    "pincode": "201005"
  },
  "__v": 0
},
{
  "_id": {
    "$oid": "66adb2aba9805af7a920f202"
  },
  "userId": {
    "$oid": "66adb2aaa9805af7a920f200"
  },
  "brand": "FAX",
  "location": {
    "street": "ABC",
    "district": "Ghaziabad",
    "state": "Uttar Pradesh",
    "pincode": "201005"
  },
  "__v": 0
},
{
  "_id": {
    "$oid": "66adb2aca9805af7a920f211"
  },
  "userId": {
    "$oid": "66adb2aba9805af7a920f20f"
  },
  "brand": "Chazer",
  "location": {
    "street": "ABC",
    "district": "Ghaziabad",
    "state": "Uttar Pradesh",
    "pincode": "201005"
  },
  "__v": 0
},
{
  "_id": {
    "$oid": "66adb2ada9805af7a920f220"
  },
  "userId": {
    "$oid": "66adb2ada9805af7a920f21e"
  },
  "brand": "Roadster",
  "location": {
    "street": "ABC",
    "district": "Ghaziabad",
    "state": "Uttar Pradesh",
    "pincode": "201005"
  },
  "__v": 0
},
{
  "_id": {
    "$oid": "66adb2aea9805af7a920f22f"
  },
  "userId": {
    "$oid": "66adb2aea9805af7a920f22d"
  },
  "brand": "Leather chief",
  "location": {
    "street": "ABC",
    "district": "Ghaziabad",
    "state": "Uttar Pradesh",
    "pincode": "201005"
  },
  "__v": 0
},
{
  "_id": {
    "$oid": "66adb2afa9805af7a920f23e"
  },
  "userId": {
    "$oid": "66adb2aea9805af7a920f23c"
  },
  "brand": "Hitway",
  "location": {
    "street": "ABC",
    "district": "Ghaziabad",
    "state": "Uttar Pradesh",
    "pincode": "201005"
  },
  "__v": 0
},
{
  "_id": {
    "$oid": "66adb2afa9805af7a920f24d"
  },
  "userId": {
    "$oid": "66adb2afa9805af7a920f24b"
  },
  "brand": "Lilliput",
  "location": {
    "street": "ABC",
    "district": "Ghaziabad",
    "state": "Uttar Pradesh",
    "pincode": "201005"
  },
  "__v": 0
},
{
  "_id": {
    "$oid": "66adb2b0a9805af7a920f25c"
  },
  "userId": {
    "$oid": "66adb2b0a9805af7a920f25a"
  },
  "brand": "Gasser",
  "location": {
    "street": "ABC",
    "district": "Ghaziabad",
    "state": "Uttar Pradesh",
    "pincode": "201005"
  },
  "__v": 0
},
{
  "_id": {
    "$oid": "66adb2b1a9805af7a920f26b"
  },
  "userId": {
    "$oid": "66adb2b1a9805af7a920f269"
  },
  "brand": "ARMOIRE",
  "location": {
    "street": "ABC",
    "district": "Ghaziabad",
    "state": "Uttar Pradesh",
    "pincode": "201005"
  },
  "__v": 0
},
{
  "_id": {
    "$oid": "66adb2b2a9805af7a920f283"
  },
  "userId": {
    "$oid": "66adb2b2a9805af7a920f281"
  },
  "brand": "SIESTA",
  "location": {
    "street": "ABC",
    "district": "Ghaziabad",
    "state": "Uttar Pradesh",
    "pincode": "201005"
  },
  "__v": 0
},
{
  "_id": {
    "$oid": "66adb2b4a9805af7a920f292"
  },
  "userId": {
    "$oid": "66adb2b3a9805af7a920f290"
  },
  "brand": "EVER WEAR",
  "location": {
    "street": "ABC",
    "district": "Ghaziabad",
    "state": "Uttar Pradesh",
    "pincode": "201005"
  },
  "__v": 0
},
{
  "_id": {
    "$oid": "66adb2b4a9805af7a920f2a1"
  },
  "userId": {
    "$oid": "66adb2b4a9805af7a920f29f"
  },
  "brand": "Jon Pep",
  "location": {
    "street": "ABC",
    "district": "Ghaziabad",
    "state": "Uttar Pradesh",
    "pincode": "201005"
  },
  "__v": 0
},
{
  "_id": {
    "$oid": "66adb2b6a9805af7a920f2b0"
  },
  "userId": {
    "$oid": "66adb2b5a9805af7a920f2ae"
  },
  "brand": "TIMBERLAKE",
  "location": {
    "street": "ABC",
    "district": "Ghaziabad",
    "state": "Uttar Pradesh",
    "pincode": "201005"
  },
  "__v": 0
},
{
  "_id": {
    "$oid": "66adb2b6a9805af7a920f2bf"
  },
  "userId": {
    "$oid": "66adb2b6a9805af7a920f2bd"
  },
  "brand": "Action",
  "location": {
    "street": "ABC",
    "district": "Ghaziabad",
    "state": "Uttar Pradesh",
    "pincode": "201005"
  },
  "__v": 0
},
{
  "_id": {
    "$oid": "66adb2b8a9805af7a920f2e0"
  },
  "userId": {
    "$oid": "66adb2b8a9805af7a920f2de"
  },
  "brand": "FLITE",
  "location": {
    "street": "ABC",
    "district": "Ghaziabad",
    "state": "Uttar Pradesh",
    "pincode": "201005"
  },
  "__v": 0
},
{
  "_id": {
    "$oid": "66adb2b9a9805af7a920f2ef"
  },
  "userId": {
    "$oid": "66adb2b9a9805af7a920f2ed"
  },
  "brand": "Zippy",
  "location": {
    "street": "ABC",
    "district": "Ghaziabad",
    "state": "Uttar Pradesh",
    "pincode": "201005"
  },
  "__v": 0
},
{
  "_id": {
    "$oid": "66adb2baa9805af7a920f2fe"
  },
  "userId": {
    "$oid": "66adb2baa9805af7a920f2fc"
  },
  "brand": "Martini",
  "location": {
    "street": "ABC",
    "district": "Ghaziabad",
    "state": "Uttar Pradesh",
    "pincode": "201005"
  },
  "__v": 0
},
{
  "_id": {
    "$oid": "66adb2bba9805af7a920f30d"
  },
  "userId": {
    "$oid": "66adb2bba9805af7a920f30b"
  },
  "brand": "PI ZON",
  "location": {
    "street": "ABC",
    "district": "Ghaziabad",
    "state": "Uttar Pradesh",
    "pincode": "201005"
  },
  "__v": 0
},
{
  "_id": {
    "$oid": "66adb2bda9805af7a920f32e"
  },
  "userId": {
    "$oid": "66adb2bda9805af7a920f32c"
  },
  "brand": "AMCO",
  "location": {
    "street": "ABC",
    "district": "Ghaziabad",
    "state": "Uttar Pradesh",
    "pincode": "201005"
  },
  "__v": 0
},
{
  "_id": {
    "$oid": "66adb2bea9805af7a920f33d"
  },
  "userId": {
    "$oid": "66adb2bea9805af7a920f33b"
  },
  "brand": "ATIS AMCO",
  "location": {
    "street": "ABC",
    "district": "Ghaziabad",
    "state": "Uttar Pradesh",
    "pincode": "201005"
  },
  "__v": 0
},
{
  "_id": {
    "$oid": "66adb2bfa9805af7a920f355"
  },
  "userId": {
    "$oid": "66adb2bfa9805af7a920f353"
  },
  "brand": "WorldWearFootwear",
  "location": {
    "street": "ABC",
    "district": "Ghaziabad",
    "state": "Uttar Pradesh",
    "pincode": "201005"
  },
  "__v": 0
},
{
  "_id": {
    "$oid": "66adb2c0a9805af7a920f36d"
  },
  "userId": {
    "$oid": "66adb2c0a9805af7a920f36b"
  },
  "brand": "Ridhi-Impex",
  "location": {
    "street": "ABC",
    "district": "Ghaziabad",
    "state": "Uttar Pradesh",
    "pincode": "201005"
  },
  "__v": 0
},
{
  "_id": {
    "$oid": "66adb2c2a9805af7a920f37c"
  },
  "userId": {
    "$oid": "66adb2c1a9805af7a920f37a"
  },
  "brand": "Zappy",
  "location": {
    "street": "ABC",
    "district": "Ghaziabad",
    "state": "Uttar Pradesh",
    "pincode": "201005"
  },
  "__v": 0
},
{
  "_id": {
    "$oid": "66adb2c2a9805af7a920f38b"
  },
  "userId": {
    "$oid": "66adb2c2a9805af7a920f389"
  },
  "brand": "Toe Spring",
  "location": {
    "street": "ABC",
    "district": "Ghaziabad",
    "state": "Uttar Pradesh",
    "pincode": "201005"
  },
  "__v": 0
},
{
  "_id": {
    "$oid": "66adb2c4a9805af7a920f3ac"
  },
  "userId": {
    "$oid": "66adb2c4a9805af7a920f3aa"
  },
  "brand": "Being Nawab",
  "location": {
    "street": "ABC",
    "district": "Ghaziabad",
    "state": "Uttar Pradesh",
    "pincode": "201005"
  },
  "__v": 0
},
{
  "_id": {
    "$oid": "66adb2c5a9805af7a920f3bc"
  },
  "userId": {
    "$oid": "66adb2c5a9805af7a920f3ba"
  },
  "brand": "Ray-Pro",
  "location": {
    "street": "ABC",
    "district": "Ghaziabad",
    "state": "Uttar Pradesh",
    "pincode": "201005"
  },
  "__v": 0
},
{
  "_id": {
    "$oid": "66adb2c6a9805af7a920f3cc"
  },
  "userId": {
    "$oid": "66adb2c6a9805af7a920f3ca"
  },
  "brand": "3a AUTOCARE",
  "location": {
    "street": "ABC",
    "district": "Ghaziabad",
    "state": "Uttar Pradesh",
    "pincode": "201005"
  },
  "__v": 0
},
{
  "_id": {
    "$oid": "66adb2c8a9805af7a920f3f0"
  },
  "userId": {
    "$oid": "66adb2c8a9805af7a920f3ee"
  },
  "brand": "3a Autocare",
  "location": {
    "street": "ABC",
    "district": "Ghaziabad",
    "state": "Uttar Pradesh",
    "pincode": "201005"
  },
  "__v": 0
},
{
  "_id": {
    "$oid": "66adb2c8a9805af7a920f3ff"
  },
  "userId": {
    "$oid": "66adb2c8a9805af7a920f3fd"
  },
  "brand": "Ninety One Degree",
  "location": {
    "street": "ABC",
    "district": "Ghaziabad",
    "state": "Uttar Pradesh",
    "pincode": "201005"
  },
  "__v": 0
},
{
  "_id": {
    "$oid": "66adb2cea9805af7a920f445"
  },
  "userId": {
    "$oid": "66adb2cda9805af7a920f443"
  },
  "brand": "Tatvaarts",
  "location": {
    "street": "ABC",
    "district": "Ghaziabad",
    "state": "Uttar Pradesh",
    "pincode": "201005"
  },
  "__v": 0
},
{
  "_id": {
    "$oid": "66adb2cea9805af7a920f454"
  },
  "userId": {
    "$oid": "66adb2cea9805af7a920f452"
  },
  "brand": "Pratha",
  "location": {
    "street": "ABC",
    "district": "Ghaziabad",
    "state": "Uttar Pradesh",
    "pincode": "201005"
  },
  "__v": 0
},
{
  "_id": {
    "$oid": "66adb2d0a9805af7a920f46e"
  },
  "userId": {
    "$oid": "66adb2d0a9805af7a920f46c"
  },
  "brand": "Addons",
  "location": {
    "street": "ABC",
    "district": "Ghaziabad",
    "state": "Uttar Pradesh",
    "pincode": "201005"
  },
  "__v": 0
},
{
  "_id": {
    "$oid": "66adb2d2a9805af7a920f488"
  },
  "userId": {
    "$oid": "66adb2d1a9805af7a920f486"
  },
  "brand": "UpTown",
  "location": {
    "street": "ABC",
    "district": "Ghaziabad",
    "state": "Uttar Pradesh",
    "pincode": "201005"
  },
  "__v": 0
},
{
  "_id": {
    "$oid": "66adb2d7a9805af7a920f4cd"
  },
  "userId": {
    "$oid": "66adb2d7a9805af7a920f4cb"
  },
  "brand": "Aaishwarya",
  "location": {
    "street": "ABC",
    "district": "Ghaziabad",
    "state": "Uttar Pradesh",
    "pincode": "201005"
  },
  "__v": 0
},
{
  "_id": {
    "$oid": "66adb2d9a9805af7a920f4e5"
  },
  "userId": {
    "$oid": "66adb2d9a9805af7a920f4e3"
  },
  "brand": "Zovon",
  "location": {
    "street": "ABC",
    "district": "Ghaziabad",
    "state": "Uttar Pradesh",
    "pincode": "201005"
  },
  "__v": 0
},
{
  "_id": {
    "$oid": "66adb2dba9805af7a920f4fd"
  },
  "userId": {
    "$oid": "66adb2daa9805af7a920f4fb"
  },
  "brand": "Amzer",
  "location": {
    "street": "ABC",
    "district": "Ghaziabad",
    "state": "Uttar Pradesh",
    "pincode": "201005"
  },
  "__v": 0
},
{
  "_id": {
    "$oid": "66adb2dba9805af7a920f50d"
  },
  "userId": {
    "$oid": "66adb2dba9805af7a920f50b"
  },
  "brand": "Gear X",
  "location": {
    "street": "ABC",
    "district": "Ghaziabad",
    "state": "Uttar Pradesh",
    "pincode": "201005"
  },
  "__v": 0
},
{
  "_id": {
    "$oid": "66adb2dda9805af7a920f525"
  },
  "userId": {
    "$oid": "66adb2dda9805af7a920f523"
  },
  "brand": "Neopack",
  "location": {
    "street": "ABC",
    "district": "Ghaziabad",
    "state": "Uttar Pradesh",
    "pincode": "201005"
  },
  "__v": 0
}]